LANDSAT 9               
1 49260U 21088A   24297.92669302  .00001065  00000+0  24638-3 0  9998
2 49260  98.2190   5.9022 0001114  76.6744 283.4579 14.57105488163440
